{
    "CCSDS_OMM_VERS": "3.0",
    "COMMENT": "GENERATED VIA SPACE-TRACK.ORG API",
    "CREATION_DATE": "2025-05-23T06:56:36",
    "ORIGINATOR": "18 SPCS",
    "OBJECT_NAME": "BEIDOU 3M11",
    "OBJECT_ID": "2018-067A",
    "CENTER_NAME": "EARTH",
    "REF_FRAME": "TEME",
    "TIME_SYSTEM": "UTC",
    "MEAN_ELEMENT_THEORY": "SGP4",
    "EPOCH": "2025-05-23T01:50:50.798976",
    "MEAN_MOTION": "1.86227791",
    "ECCENTRICITY": "0.00071530",
    "INCLINATION": "54.1927",
    "RA_OF_ASC_NODE": "194.2694",
    "ARG_OF_PERICENTER": "25.9610",
    "MEAN_ANOMALY": "334.1595",
    "EPHEMERIS_TYPE": "0",
    "CLASSIFICATION_TYPE": "U",
    "NORAD_CAT_ID": "43602",
    "ELEMENT_SET_NO": "999",
    "REV_AT_EPOCH": "4585",
    "BSTAR": "0.00000000000000",
    "MEAN_MOTION_DOT": "0.00000084",
    "MEAN_MOTION_DDOT": "0.0000000000000",
    "SEMIMAJOR_AXIS": "27906.509",
    "PERIOD": "773.247",
    "APOAPSIS": "21548.336",
    "PERIAPSIS": "21508.413",
    "OBJECT_TYPE": "PAYLOAD",
    "RCS_SIZE": "LARGE",
    "COUNTRY_CODE": "PRC",
    "LAUNCH_DATE": "2018-08-24",
    "SITE": "XSC",
    "DECAY_DATE": null,
    "FILE": "4736754",
    "GP_ID": "288170004",
    "TLE_LINE0": "0 BEIDOU 3M11",
    "TLE_LINE1": "1 43602U 18067A   25143.07697684  .00000084  00000-0  00000+0 0  9990",
    "TLE_LINE2": "2 43602  54.1927 194.2694 0007153  25.9610 334.1595  1.86227791 45854"
}